249P/LINEAR,e,8.3864,239.0767,65.7388,2.763726,0.2145169,0.81966736,205.4230,02/12.0/2023,2000,g 15.5,4.0
# From MPC110497
250P/Larson,e,13.1510,73.3571,46.0851,3.768981,0.1347002,0.39889750,248.7647,02/12.0/2023,2000,g 14.5,4.0
# From MPC104795
251P/LINEAR,e,23.3863,219.3446,31.2532,3.513111,0.1496809,0.50448771,305.1760,02/12.0/2023,2000,g 16.5,2.0
# From MPEC 2021-S45
252P/LINEAR,e,10.4137,190.9137,343.3974,3.051023,0.1849421,0.67119881,107.4512,02/12.0/2023,2000,g 17.5,4.0
# From MPEC 2020-FB5
253P/PANSTARRS,e,4.9434,146.8778,230.7214,3.464240,0.1528594,0.41458139,265.7130,02/12.0/2023,2000,g 14.5,4.0
# From MPEC 2023-BF4
254P/McNaught,e,32.5650,129.1854,219.6669,4.615995,0.0993816,0.31963184,85.9297,02/12.0/2023,2000,g 11.0,4.0
# From MPEC 2021-UA9
255P/Levy,e,13.4112,275.6609,186.0122,2.942152,0.1953018,0.71154665,30.7994,02/12.0/2023,2000,g 14.1,4.0
# From MPEC 2023-C45
256P/LINEAR,e,27.6191,81.3307,124.1943,4.639622,0.0986235,0.41798822,357.2149,02/12.0/2023,2000,g 14.0,2.0
# From MPEC 2023-A50
257P/Catalina,e,20.2197,207.7151,117.7654,3.764400,0.1349461,0.42996600,119.3464,02/12.0/2023,2000,g 11.5,4.0
# From MPEC 2021-U31
258P/PANSTARRS,e,6.7471,126.2362,25.7461,4.393877,0.1070119,0.20847782,103.7603,02/12.0/2023,2000,g 13.0,4.0
# From MPC106349
259P/Garradd,e,15.8966,51.4313,257.5502,2.729516,0.2185625,0.33886504,80.6069,02/12.0/2023,2000,g 15.5,4.0
# From MPEC 2022-O01
260P/McNaught,e,15.0558,349.3358,18.4490,3.623300,0.1429051,0.60934929,178.6485,02/12.0/2023,2000,g 13.5,4.0
# From MPEC 2021-J28
261P/Larson,e,6.0720,291.1083,67.2720,3.490488,0.1511384,0.42331976,201.4957,02/12.0/2023,2000,g 14.0,4.0
# From MPC 82322
262P/McNaught-Russell,e,29.2918,217.8632,171.0598,6.871436,0.0547183,0.81632505,203.5302,02/12.0/2023,2000,g 13.5,4.0
# From MPEC 2023-C45
263P/Gibbs,e,11.5218,105.5105,35.0431,3.041756,0.1857879,0.59355747,2.3067,02/12.0/2023,2000,g 18.0,4.0
# From MPC114608
264P/Larsen,e,25.5217,220.0510,346.6878,3.882608,0.1288305,0.37676482,166.1294,02/12.0/2023,2000,g 13.0,4.0
# From MPC 79870
265P/LINEAR,e,14.3619,342.9270,33.4902,4.256664,0.1122277,0.64761192,82.2397,02/12.0/2023,2000,g 14.5,4.0
# From MPEC 2021-F20
266P/Christensen,e,3.4269,4.9914,97.6712,3.531244,0.1485294,0.33998868,152.7778,02/12.0/2023,2000,g 14.7,4.0
# From MPC114608
267P/LONEOS,e,6.1438,228.5667,114.2434,3.210535,0.1713318,0.61437310,284.9989,02/12.0/2023,2000,g 19.5,4.0
# From MPC 92277
268P/Bernardi,e,15.7007,126.3216,359.8183,4.586194,0.1003518,0.47694780,292.1790,02/12.0/2023,2000,g 14.0,4.0
# From MPC104795
269P/Jedicke,e,7.0813,241.7499,225.6882,7.067971,0.0524520,0.43170069,160.3282,02/12.0/2023,2000,g 10.0,4.0
# From MPC 88332
270P/Gehrels,e,2.9244,223.0364,209.7651,6.658088,0.0573693,0.46912598,202.6418,02/12.0/2023,2000,g  8.0,4.0
# From MPC 92277
271P/van Houten-Lemmon,e,6.8720,9.3163,36.4260,7.035768,0.0528125,0.39577481,184.5753,02/12.0/2023,2000,g 11.0,4.0
# From MPEC 2022-C56
272P/NEAT,e,18.0728,109.4635,27.8924,4.461598,0.1045848,0.45488369,21.9601,02/12.0/2023,2000,g 16.0,2.0
# From MPC 82723
273P/Pons-Gambart,e,136.6750,320.3933,20.2955,31.97997,0.0054499,0.97437524,0.0000,12/21.7660/2012,2000,g 11.5,4.0
# From MPEC 2023-C45
274P/Tombaugh-Tenagra,e,15.8155,81.3289,38.4718,4.377250,0.1076223,0.43960737,33.3128,02/12.0/2023,2000,g 13.0,4.0
# From MPC 81862
275P/Hermann,e,21.2702,348.7537,173.9498,5.780082,0.0709256,0.71295954,263.8280,02/12.0/2023,2000,g 17.0,4.0
# From MPEC 2023-A50
276P/Vorobjov,e,14.8112,211.3468,199.4800,5.326049,0.0801856,0.26808427,306.2995,02/12.0/2023,2000,g 11.5,4.0
# From MPEC 2021-F20
277P/LINEAR,e,16.7794,276.3028,152.3368,3.853459,0.1302951,0.50617735,100.7942,02/12.0/2023,2000,g 15.1,4.0
# From MPEC 2021-S45
278P/McNaught,e,6.6961,15.3805,237.5944,3.681988,0.1395020,0.43694044,123.2393,02/12.0/2023,2000,g 14.0,4.0
# From MPEC 2022-K19
279P/LaSagra,e,5.0524,346.2329,5.8601,3.573551,0.1458996,0.39888690,350.2850,02/12.0/2023,2000,g 14.0,4.0
# From MPEC 2022-K19
280P/Larsen,e,11.7722,131.3878,104.7299,4.530091,0.1022218,0.41720352,342.2470,02/12.0/2023,2000,g 12.5,4.0
# From MPEC 2021-W31
281P/MOSS,e,4.7182,87.1790,26.6600,4.877886,0.0914864,0.17290573,0.9513,02/12.0/2023,2000,g 11.0,4.0
# From MPC133426
282P/,e,5.8117,9.2959,217.6113,4.238085,0.1129665,0.18802962,53.7227,02/12.0/2023,2000,g 13.5,2.0
# From MPEC 2022-K19
283P/Spacewatch,e,14.4556,161.1272,22.2142,4.135366,0.1172015,0.48443350,61.1956,02/12.0/2023,2000,g 16.0,2.0
# From MPEC 2022-YB4
284P/McNaught,e,11.8610,144.2633,202.4342,3.676221,0.1398304,0.37534220,72.3529,02/12.0/2023,2000,g 13.0,4.0
# From MPEC 2023-B57
285P/LINEAR,e,25.0382,185.5070,178.4181,4.510810,0.1028779,0.61884082,3.1616,02/12.0/2023,2000,g 15.0,4.0
# From MPEC 2022-X67
286P/Christensen,e,17.0389,283.8802,24.9105,4.114621,0.1180890,0.42632973,32.5164,02/12.0/2023,2000,g 14.0,4.0
# From MPEC 2023-A50
287P/Christensen,e,16.3216,139.0429,189.1176,4.163563,0.1160129,0.27124565,343.2898,02/12.0/2023,2000,g 13.5,4.0
# From MPC133426
288P/,e,3.2384,83.1233,280.2045,3.048199,0.1851992,0.20051843,64.3304,02/12.0/2023,2000,g 16.0,2.0
# From MPEC 2022-K19
289P/Blanpain,e,5.8992,68.8871,9.8396,3.045424,0.1854524,0.68605818,213.0326,02/12.0/2023,2000,g 19.0,4.0
# From MPC 95214
290P/Jager,e,20.0345,302.6676,181.8468,6.217202,0.0635787,0.62727787,210.2944,02/12.0/2023,2000,g 10.5,4.0
# From MPEC 2023-B57
291P/NEAT,e,6.3067,237.6645,173.5330,4.541883,0.1018240,0.43521066,351.7366,02/12.0/2023,2000,g 13.0,4.0
# From MPEC 2022-K19
292P/Li,e,24.2939,90.9235,319.5360,6.101768,0.0653914,0.58963253,215.4447,02/12.0/2023,2000,g 12.5,4.0
# From MPEC 2022-L66
293P/Spacewatch,e,9.0602,78.3984,40.9462,3.640767,0.1418779,0.41848118,111.3529,02/12.0/2023,2000,g 14.5,4.0
# From MPEC 2020-SI8
294P/LINEAR,e,17.8239,311.0578,236.4062,3.186265,0.1732931,0.60356408,202.2006,02/12.0/2023,2000,g 15.5,4.0
# From MPEC 2022-K19
295P/LINEAR,e,21.0742,7.4349,72.8901,5.304806,0.0806677,0.61709159,258.5887,02/12.0/2023,2000,g 12.0,4.0
# From MPEC 2021-N06
296P/Garradd,e,25.2476,263.5530,349.9870,3.491910,0.1510461,0.47887840,132.5573,02/12.0/2023,2000,g 14.0,4.0
# From MPC102956
297P/Beshore,e,10.2958,96.5468,134.6958,3.465445,0.1527797,0.32118542,113.8835,02/12.0/2023,2000,g 15.0,4.0
# From MPC114609
298P/Christensen,e,7.8707,52.8198,100.6230,3.590079,0.1448932,0.38624428,128.8316,02/12.0/2023,2000,g 15.0,4.0
# From MPEC 2022-V95
299P/Catalina-PANSTARRS,e,10.4675,271.6015,323.7591,4.388341,0.1072145,0.28091905,312.4207,02/12.0/2023,2000,g 11.5,4.0
# From MPEC 2022-ED3
300P/Catalina,e,5.6740,95.6243,222.9520,2.698637,0.2223245,0.69166887,347.0802,02/12.0/2023,2000,g 16.0,4.0
# From MPC 89014
301P/LINEAR-NEAT,e,10.3379,351.1701,193.5509,5.740954,0.0716519,0.58545836,221.9998,02/12.0/2023,2000,g 13.0,4.0
# From MPEC 2022-K19
302P/Lemmon-PANSTARRS,e,6.0335,121.7315,208.4858,4.272917,0.1115880,0.23023786,275.6878,02/12.0/2023,2000,g 12.5,4.0
# From MPC 92278
303P/NEAT,e,7.0200,347.9650,356.9872,5.043650,0.0870135,0.51088924,263.9985,02/12.0/2023,2000,g 13.5,4.0
# From MPEC 2022-K19
304P/Ory,e,2.6074,58.9079,335.2657,3.150697,0.1762358,0.60094788,160.9110,02/12.0/2023,2000,g 16.5,4.0
# From MPC101100
305P/Skiff,e,11.6679,240.1025,147.3713,4.639893,0.0986148,0.69398456,296.4832,02/12.0/2023,2000,g 18.0,4.0
# From MPC 92278
306P/LINEAR,e,8.3087,341.3732,0.8875,3.124149,0.1784870,0.59312883,199.1473,02/12.0/2023,2000,g 19.0,4.0
# From MPC 92278
307P/LINEAR,e,4.4353,158.1634,222.1669,5.789448,0.0707536,0.67554988,210.1463,02/12.0/2023,2000,g 15.0,4.0
# From MPEC 2022-C56
308P/Lagerkvist-Carsenty,e,4.8545,63.0403,333.6709,6.599752,0.0581317,0.36461130,164.7242,02/12.0/2023,2000,g 13.0,2.0
# From MPC 94284
309P/LINEAR,e,17.0238,10.1449,49.9436,4.373147,0.1077737,0.61820873,315.6951,02/12.0/2023,2000,g 15.0,4.0
# From MPEC 2022-QD9
310P/Hill,e,13.1278,8.9208,31.7197,4.183605,0.1151803,0.42250038,330.7394,02/12.0/2023,2000,g 13.5,4.0
# From MPEC 2021-BE3
311P/PANSTARRS,e,4.9700,279.2121,144.4978,2.188198,0.3044907,0.11590920,261.1572,02/12.0/2023,2000,g 17.0,4.0
# From MPEC 2021-BE3
312P/NEAT,e,19.7632,144.6710,207.6576,3.469662,0.1525012,0.42768726,132.6438,02/12.0/2023,2000,g 16.0,4.0
# From MPEC 2021-S45
313P/Gibbs,e,10.9788,105.9534,254.8615,3.164072,0.1751195,0.23495202,180.6967,02/12.0/2023,2000,g 15.0,4.0
# From MPC105243
314P/Montani,e,3.9863,267.6067,213.9202,7.257459,0.0504112,0.41683311,116.8661,02/12.0/2023,2000,g  9.5,4.0
# From MPEC 2021-N06
315P/LONEOS,e,17.7353,68.7665,65.7432,4.939966,0.0897673,0.52104624,203.7933,02/12.0/2023,2000,g 11.0,4.0
# From MPC 92279
316P/LONEOS-Christensen,e,9.8272,246.2358,191.6650,4.386813,0.1072705,0.15603440,291.9214,02/12.0/2023,2000,g 13.5,4.0
# From MPEC 2020-C98
317P/WISE,e,11.9539,275.4820,334.8314,2.962344,0.1933085,0.57059167,168.0160,02/12.0/2023,2000,g 17.5,4.0
# From MPC102103
318P/McNaught-Hartley,e,17.8890,35.5041,313.3361,7.505090,0.0479369,0.67503672,127.7873,02/12.0/2023,2000,g  8.5,6.0
# From MPC 97499
319P/Catalina-McNaught,e,15.0955,111.3614,203.6619,3.565097,0.1464189,0.66654638,46.5036,02/12.0/2023,2000,g 15.0,4.0
# From MPC 96281
320P/McNaught,e,4.9053,295.9474,0.7855,3.094345,0.1810718,0.68522611,136.9110,02/12.0/2023,2000,g 20.5,4.0
# From MPC105243
321P/SOHO,e,20.0839,165.0181,172.7467,2.423125,0.2613006,0.98108153,0.0000,10/26.6004/2023,2000,g 20.0,4.0
# From MPC102103
322P/SOHO,e,11.4655,351.5037,56.9081,2.507519,0.2482205,0.97997326,0.0000,08/21.0851/2023,2000,g 19.0,4.0
# From MPEC 2016-Y36
323P/SOHO,e,5.3202,324.4075,353.0340,2.583292,0.2373798,0.98475267,0.0000,01/17.8627/2021,2000,g 20.0,4.0
# From MPEC 2021-W31
324P/LaSagra,e,21.4031,270.5850,57.5441,3.094627,0.1810471,0.15365340,117.3014,02/12.0/2023,2000,g 13.0,4.0
# From MPEC 2022-TA0
325P/Yang-Gao,e,16.6943,257.5055,343.8215,3.526234,0.1488460,0.59354298,47.5897,02/12.0/2023,2000,g 14.0,4.0
# From MPC103849
326P/Hill,e,2.4711,99.8088,278.6533,4.062761,0.1203572,0.31830549,321.3021,02/12.0/2023,2000,g 13.5,4.0
# From MPEC 2023-B57
